COSMOS 2523             
1 42986U 17037E   26193.22579260  .00000626  00000+0  59097-4 0  9998
2 42986  97.4987 205.2531 0067497 144.6226 215.9502 14.95494751472704
SKYSAT-C11              
1 42987U 17068A   26192.71211125  .00018813  00000+0  24139-3 0  9994
2 42987  97.4366 342.6375 0000957 163.5740 196.5548 15.59189206487063
SKYSAT-C10              
1 42988U 17068B   26193.19683330  .00006339  00000+0  18867-3 0  9990
2 42988  97.4527 330.2987 0001407 109.1454 250.9941 15.35077078486196
SKYSAT-C9               
1 42989U 17068C   26192.18672867  .00008274  00000+0  19496-3 0  9991
2 42989  97.4444 330.4450 0008945  57.4451 302.7659 15.42149851486456
SKYSAT-C8               
1 42990U 17068D   26192.86941280  .00006258  00000+0  17273-3 0  9997
2 42990  97.4545 329.8628 0001248 101.2013 258.9372 15.37449279486107
SKYSAT-C7               
1 42991U 17068E   26193.18922727  .00006063  00000+0  16760-3 0  9993
2 42991  97.4554 331.1783 0005961  31.4631 328.6968 15.37404124486210
SKYSAT-C6               
1 42992U 17068F   26192.86656048  .00005678  00000+0  17431-3 0  9995
2 42992  97.4592 330.7193 0005162  97.3545 262.8285 15.34133330486105
BEIDOU-3 M1             
1 43001U 17069A   26192.29607689 -.00000044  00000+0  00000+0 0  9995
2 43001  56.7122  62.2913 0009357 328.5937  31.4164  1.86231117 59055
BEIDOU-3 M2             
1 43002U 17069B   26191.16097920 -.00000046  00000+0  00000+0 0  9994
2 43002  56.7107  62.3639 0008254 357.9796   2.0799  1.86230592 59020
MOHAMMED VI-A           
1 43005U 17070A   26193.20770419 -.00000211  00000+0 -22681-4 0  9996
2 43005  97.9554 265.1933 0001179  94.1162 266.0183 14.77098596467675
FENGYUN 3D              
1 43010U 17072A   26193.23633947  .00000096  00000+0  67197-4 0  9991
2 43010  99.0136 168.1128 0001720  21.3195 338.8052 14.19744631448540
HEAD-1                  
1 43011U 17072B   26193.23925135  .00000373  00000+0  16638-3 0  9996
2 43011  98.9551 212.4151 0011200  82.2471 277.9981 14.28813920450934
NOAA 20 (JPSS-1)        
1 43013U 17073A   26193.16493314  .00000012  00000+0  26591-4 0  9990
2 43013  98.7774 132.4062 0001277 127.1465 232.9828 14.19516095448018
MAKERSAT 0              
1 43016U 17073D   26193.12268903  .00011859  00000+0  31444-3 0  9996
2 43016  97.4594  75.8460 0105289 183.1958 176.8625 15.32930037470283
RADFXSAT (FOX-1B)       
1 43017U 17073E   26193.07687024  .00003550  00000+0  15680-3 0  9993
2 43017  97.4678  59.7847 0148086 242.3404 116.2732 15.13035809469156
JILIN-1 04              
1 43022U 17074A   26193.18741161  .00008455  00000+0  19331-3 0  9991
2 43022  97.4872 303.4792 0005258 108.3287 251.8532 15.43078151478120
JILIN-1 05              
1 43023U 17074B   26193.23407900  .00004532  00000+0  13908-3 0  9994
2 43023  97.4878 299.7348 0006316 132.7997 227.3778 15.34254808477849
JILIN-1 06              
1 43024U 17074C   26193.20943091  .00003472  00000+0  10804-3 0  9992
2 43024  97.4804 296.6860 0007902 143.1418 217.0369 15.33974329477679
YAOGAN-30 03A           
1 43028U 17075A   26193.19273969  .00001550  00000+0  11524-3 0  9990
2 43028  34.9940 118.0804 0001878 193.8770 166.1887 15.02931374471014
YAOGAN-30 03B           
1 43029U 17075B   26193.18536528  .00001613  00000+0  12027-3 0  9992
2 43029  34.9930 117.8540 0002212  99.2328 260.8630 15.02801122471126
YAOGAN-30 03C           
1 43030U 17075C   26193.16444492  .00001502  00000+0  11209-3 0  9998
2 43030  34.9945 117.9559 0003162 266.0039  94.0308 15.02818226471181
COSMOS 2524             
1 43032U 17076A   26193.22248659 -.00000094  00000+0 -13302-4 0  9999
2 43032  67.1453 131.5590 0003676 224.2113 135.8678 13.97430139439106
LKW-1                   
1 43034U 17077A   26193.18134517  .00002206  00000+0  93510-4 0  9998
2 43034  97.0981 226.0908 0002558  90.4700 269.6831 15.24102212478506
ALCOMSAT 1              
1 43039U 17078A   26192.70264008 -.00000181  00000+0  00000+0 0  9998
2 43039   0.0366  88.8433 0002136  26.2557  42.6707  1.00270997 31543
GSAT0215 (GALILEO 19)   
1 43055U 17079A   26192.06539411  .00000090  00000+0  00000+0 0  9997
2 43055  55.0682 220.8492 0003697 267.9007  92.1373  1.70474334 53396
GSAT0216 (GALILEO 20)   
1 43056U 17079B   26191.18336701  .00000090  00000+0  00000+0 0  9997
2 43056  55.0690 220.8736 0004821 276.9654  83.0589  1.70474478 53392
GSAT0217 (GALILEO 21)   
1 43057U 17079C   26192.57733622  .00000088  00000+0  00000+0 0  9992
2 43057  55.0671 220.8331 0004474 291.1332  68.8993  1.70473980 53408
GSAT0218 (GALILEO 22)   
1 43058U 17079D   26192.21083116  .00000089  00000+0  00000+0 0  9991
2 43058  55.0671 220.8406 0005338 274.4477  85.5718  1.70474393 53428
GCOM-C (SHIKISAI)       
1 43065U 17082A   26193.17496509  .00000047  00000+0  36991-4 0  9990
2 43065  98.6269 266.4874 0001122  99.7457 260.3850 14.27275299445504
IRIDIUM 135             
1 43070U 17083A   26192.84962101  .00000123  00000+0  36759-4 0  9993
2 43070  86.3983 311.7058 0002182  94.2021 265.9425 14.34217799447688
IRIDIUM 138             
1 43071U 17083B   26192.87499067  .00000113  00000+0  33246-4 0  9990
2 43071  86.3996 311.3945 0002066  92.0202 268.1231 14.34217727447672
