OBJECT_NAME,OBJECT_ID,EPOCH,MEAN_MOTION,ECCENTRICITY,INCLINATION,RA_OF_ASC_NODE,ARG_OF_PERICENTER,MEAN_ANOMALY,EPHEMERIS_TYPE,CLASSIFICATION_TYPE,NORAD_CAT_ID,ELEMENT_SET_NO,REV_AT_EPOCH,BSTAR,MEAN_MOTION_DOT,MEAN_MOTION_DDOT
COSMOS 2523,2017-037E,2026-07-12T05:25:08.480640,14.95494751,.0067497,97.4987,205.2531,144.6226,215.9502,0,U,42986,999,47270,.59097E-4,.626E-5,0
SKYSAT-C11,2017-068A,2026-07-11T17:05:26.412000,15.59189206,.00009576,97.4366,342.6375,163.5740,196.5548,0,U,42987,999,48706,.24138872E-3,.18813E-3,0
SKYSAT-C10,2017-068B,2026-07-12T04:43:26.397120,15.35077078,.0001407,97.4527,330.2987,109.1454,250.9941,0,U,42988,999,48619,.18867E-3,.6339E-4,0
SKYSAT-C9,2017-068C,2026-07-11T04:28:53.357088,15.42149851,.00089454,97.4444,330.4450,57.4451,302.7659,0,U,42989,999,48645,.19496411E-3,.8274E-4,0
SKYSAT-C8,2017-068D,2026-07-11T20:51:57.265920,15.37449279,.00012484,97.4545,329.8628,101.2013,258.9372,0,U,42990,999,48610,.17273211E-3,.6258E-4,0
SKYSAT-C7,2017-068E,2026-07-12T04:32:29.236128,15.37404124,.0005961,97.4554,331.1783,31.4631,328.6968,0,U,42991,999,48621,.1676E-3,.6063E-4,0
SKYSAT-C6,2017-068F,2026-07-11T20:47:50.825472,15.34133330,.00051622,97.4592,330.7193,97.3545,262.8285,0,U,42992,999,48610,.17430622E-3,.5678E-4,0
BEIDOU-3 M1,2017-069A,2026-07-11T07:06:21.043296,1.86231117,.00093576,56.7122,62.2913,328.5937,31.4164,0,U,43001,999,5905,0,-.44E-6,0
BEIDOU-3 M2,2017-069B,2026-07-10T03:51:48.602880,1.86230592,.00082547,56.7107,62.3639,357.9796,2.0799,0,U,43002,999,5902,0,-.46E-6,0
MOHAMMED VI-A,2017-070A,2026-07-12T04:59:05.642016,14.77098596,.0001179,97.9554,265.1933,94.1162,266.0183,0,U,43005,999,46767,-.22681E-4,-.211E-5,0
FENGYUN 3D,2017-072A,2026-07-12T05:40:19.730208,14.19744631,.000172,99.0136,168.1128,21.3195,338.8052,0,U,43010,999,44854,.67197E-4,.96E-6,0
HEAD-1,2017-072B,2026-07-12T05:44:31.316640,14.28813920,.00112,98.9551,212.4151,82.2471,277.9981,0,U,43011,999,45093,.16638E-3,.373E-5,0
NOAA 20 (JPSS-1),2017-073A,2026-07-12T03:57:30.223296,14.19516095,.0001277,98.7774,132.4062,127.1465,232.9828,0,U,43013,999,44801,.26591E-4,.12E-6,0
MAKERSAT 0,2017-073D,2026-07-12T02:56:40.332192,15.32930037,.0105289,97.4594,75.8460,183.1958,176.8625,0,U,43016,999,47028,.31444E-3,.11859E-3,0
RADFXSAT (FOX-1B),2017-073E,2026-07-12T01:50:41.588736,15.13035809,.0148086,97.4678,59.7847,242.3404,116.2732,0,U,43017,999,46915,.1568E-3,.355E-4,0
JILIN-1 04,2017-074A,2026-07-12T04:29:52.363104,15.43078151,.0005258,97.4872,303.4792,108.3287,251.8532,0,U,43022,999,47812,.19331E-3,.8455E-4,0
JILIN-1 05,2017-074B,2026-07-12T05:37:04.425600,15.34254808,.0006316,97.4878,299.7348,132.7997,227.3778,0,U,43023,999,47784,.13908E-3,.4532E-4,0
JILIN-1 06,2017-074C,2026-07-12T05:01:34.830624,15.33974329,.0007902,97.4804,296.6860,143.1418,217.0369,0,U,43024,999,47767,.10804E-3,.3472E-4,0
YAOGAN-30 03A,2017-075A,2026-07-12T04:37:32.709216,15.02931374,.0001878,34.9940,118.0804,193.8770,166.1887,0,U,43028,999,47101,.11524E-3,.155E-4,0
YAOGAN-30 03B,2017-075B,2026-07-12T04:26:55.560192,15.02801122,.0002212,34.9930,117.8540,99.2328,260.8630,0,U,43029,999,47112,.12027E-3,.1613E-4,0
YAOGAN-30 03C,2017-075C,2026-07-12T03:56:48.041088,15.02818226,.0003162,34.9945,117.9559,266.0039,94.0308,0,U,43030,999,47118,.11209E-3,.1502E-4,0
COSMOS 2524,2017-076A,2026-07-12T05:20:22.841376,13.97430139,.0003676,67.1453,131.5590,224.2113,135.8678,0,U,43032,999,43910,-.13302E-4,-.94E-6,0
LKW-1,2017-077A,2026-07-12T04:21:08.222688,15.24102212,.0002558,97.0981,226.0908,90.4700,269.6831,0,U,43034,999,47850,.9351E-4,.2206E-4,0
ALCOMSAT 1,2017-078A,2026-07-11T16:51:48.102912,1.00270997,.00021365,0.0366,88.8433,26.2557,42.6707,0,U,43039,999,3154,0,-.181E-5,0
GSAT0215 (GALILEO 19),2017-079A,2026-07-11T01:34:10.051104,1.70474334,.00036979,55.0682,220.8492,267.9007,92.1373,0,U,43055,999,5339,0,.9E-6,0
GSAT0216 (GALILEO 20),2017-079B,2026-07-10T04:24:02.909664,1.70474478,.00048214,55.0690,220.8736,276.9654,83.0589,0,U,43056,999,5339,0,.9E-6,0
GSAT0217 (GALILEO 21),2017-079C,2026-07-11T13:51:21.849408,1.70473980,.00044742,55.0671,220.8331,291.1332,68.8993,0,U,43057,999,5340,0,.88E-6,0
GSAT0218 (GALILEO 22),2017-079D,2026-07-11T05:03:35.812224,1.70474393,.00053381,55.0671,220.8406,274.4477,85.5718,0,U,43058,999,5342,0,.89E-6,0
GCOM-C (SHIKISAI),2017-082A,2026-07-12T04:11:56.983776,14.27275299,.0001122,98.6269,266.4874,99.7457,260.3850,0,U,43065,999,44550,.36991E-4,.47E-6,0
IRIDIUM 135,2017-083A,2026-07-11T20:23:27.255264,14.34217799,.00021828,86.3983,311.7058,94.2021,265.9425,0,U,43070,999,44768,.36759334E-4,.123E-5,0
IRIDIUM 138,2017-083B,2026-07-11T20:59:59.193888,14.34217727,.0002066,86.3996,311.3945,92.0202,268.1231,0,U,43071,999,44767,.33246E-4,.113E-5,0
